{
  "type": "FeatureCollection",
  "name": "sodwana_aoi",
  "crs": { "type": "name", "properties": { "name": "urn:ogc:def:crs:OGC:1.3:CRS84" } },
  "features": [
    {
      "type": "Feature",
      "properties": {
        "name": "Sodwana Bay AOI",
        "note": "Red Sands (S of Jesser Point) -> Two/Five/Seven/Nine-Mile Reefs -> Mabibi; extends offshore past canyon heads. SINGLE SOURCE OF TRUTH for the bounding box - never hardcode these coords elsewhere.",
        "lon_min": 32.62,
        "lon_max": 32.82,
        "lat_min": -27.62,
        "lat_max": -27.32
      },
      "geometry": {
        "type": "Polygon",
        "coordinates": [
          [
            [32.62, -27.62],
            [32.82, -27.62],
            [32.82, -27.32],
            [32.62, -27.32],
            [32.62, -27.62]
          ]
        ]
      }
    }
  ]
}
